NORAD_CAT_ID,OBJECT_NAME,OBJECT_TYPE,EPOCH,MEAN_MOTION,ECCENTRICITY,INCLINATION,RA_OF_ASC_NODE,ARG_OF_PERICENTER,MEAN_ANOMALY,BSTAR,MEAN_MOTION_DOT,MEAN_MOTION_DDOT,TLE_LINE0,TLE_LINE1,TLE_LINE2,SEMIMAJOR_AXIS,PERIOD,APOGEE,PERIGEE,DECAYED
49139.0,STARLINK-3057,PAYLOAD,2021-11-24 14:00:01,15.69768151,0.0003447,69.9977,286.0172,285.0842,209.0821,-0.00012969,-0.00015678,0.0,0 STARLINK-3057,1 49139U 21082K   21328.58334491 -.00015678  00000-0 -12969-3 0  9991,2 49139  69.9977 286.0172 0003447 285.0842 209.0821 15.69768151  3686,6737.696999999999,91.733,361.885,357.24,0.0
49139.0,STARLINK-3057,PAYLOAD,2021-11-24 22:00:00,15.69791656,0.0003458,69.998,285.0803,279.8677,297.4278,-8.6519e-05,-0.00010546,0.0,0 STARLINK-3057,1 49139U 21082K   21328.91667824 -.00010546  00000-0 -86519-4 0  9999,2 49139  69.9980 285.0803 0003458 279.8677 297.4278 15.69791656  3693,6737.63,91.732,361.825,357.165,0.0
49139.0,STARLINK-3057,PAYLOAD,2021-11-25 06:00:00,15.697475699999998,0.0003626,69.9981,284.1431,286.505,13.9757,-5.4294e-05,-6.688e-05,0.0,0 STARLINK-3057,1 49139U 21082K   21329.25001157 -.00006688  00000-0 -54294-4 0  9995,2 49139  69.9981 284.1431 0003626 286.5050  13.9757 15.69747570 11427,6737.755999999999,91.734,362.064,357.17800000000005,0.0
49139.0,STARLINK-3057,PAYLOAD,2021-11-25 14:00:01,15.69743109,0.00036,69.9979,283.2062,283.1616,100.4407,-4.2787e-05,-5.316e-05,0.0,0 STARLINK-3057,1 49139U 21082K   21329.58334491 -.00005316  00000-0 -42787-4 0  9992,2 49139  69.9979 283.2062 0003600 283.1616 100.4407 15.69743109  3684,6737.769,91.735,362.06,357.208,0.0
49139.0,STARLINK-3057,PAYLOAD,2021-11-25 20:00:01,15.69741299,0.0003609,69.998,282.5037,279.8556,76.0839,0.00044562,0.00053308,0.0,0 STARLINK-3057,1 49139U 21082K   21329.83334491  .00053308  00000-0  44562-3 0  9994,2 49139  69.9980 282.5037 0003609 279.8556  76.0839 15.69741299  3678,6737.774,91.735,362.071,357.208,0.0
49139.0,STARLINK-3057,PAYLOAD,2021-11-26 06:00:02,15.69714114,0.0003917,69.9977,281.3322,285.1425,264.7984,0.00011932,0.00014036,0.0,0 STARLINK-3057,1 49139U 21082K   21330.25002315  .00014036  00000-0  11932-3 0  9999,2 49139  69.9977 281.3322 0003917 285.1425 264.7984 15.69714114 11576,6737.852,91.736,362.356,357.07800000000015,0.0
49139.0,STARLINK-3057,PAYLOAD,2021-11-26 14:00:01,15.6972379,0.0003879,69.9974,280.3952,281.4222,351.6118,-4.4428e-05,-5.508e-05,0.0,0 STARLINK-3057,1 49139U 21082K   21330.58335648 -.00005508  00000-0 -44428-4 0  9996,2 49139  69.9974 280.3952 0003879 281.4222 351.6118 15.69723790  3680,6737.824000000001,91.736,362.30300000000005,357.076,0.0
49139.0,STARLINK-3057,PAYLOAD,2021-11-26 22:00:00,15.69754869,0.0003917,69.9976,279.4582,278.1937,77.8593,-8.6451e-05,-0.00010523,0.0,0 STARLINK-3057,1 49139U 21082K   21330.91667824 -.00010523  00000-0 -86451-4 0  9992,2 49139  69.9976 279.4582 0003917 278.1937  77.8593 15.69754869  3684,6737.735,91.734,362.24,356.961,0.0
49139.0,STARLINK-3057,PAYLOAD,2021-11-27 14:00:01,15.69769413,0.0003685,69.9974,277.584,281.612,240.7204,-0.0007181,-0.0008515,0.0,0 STARLINK-3057,1 49139U 21082K   21331.58334491 -.00085150  00000-0 -71810-3 0  9997,2 49139  69.9974 277.5840 0003685 281.6120 240.7204 15.69769413 11784,6737.694,91.733,362.042,357.076,0.0
49139.0,STARLINK-3057,PAYLOAD,2021-11-27 22:00:00,15.69748004,0.0003581,69.9978,276.6472,278.1201,327.3249,2.0443e-05,2.229e-05,0.0,0 STARLINK-3057,1 49139U 21082K   21331.91667824  .00002229  00000-0  20443-4 0  9994,2 49139  69.9978 276.6472 0003581 278.1201 327.3249 15.69748004 11846,6737.755,91.734,362.033,357.207,0.0
49139.0,STARLINK-3057,PAYLOAD,2021-11-28 14:00:01,15.69748407,0.0003648,69.9972,274.7729,279.056,132.6391,0.00022667,0.00026934,0.0,0 STARLINK-3057,1 49139U 21082K   21332.58334491  .00026934  00000-0  22667-3 0  9997,2 49139  69.9972 274.7729 0003648 279.0560 132.6391 15.69748407  3681,6737.754,91.734,362.077,357.161,0.0
49139.0,STARLINK-3057,PAYLOAD,2021-11-28 22:00:01,15.6982652,0.0003716,69.9974,273.8357,276.7593,218.1326,-0.00070741,-0.00084095,0.0,0 STARLINK-3057,1 49139U 21082K   21332.91668981 -.00084095  00000-0 -70741-3 0  9998,2 49139  69.9974 273.8357 0003716 276.7593 218.1326 15.69826520 11990,6737.53,91.73,361.899,356.892,0.0
49139.0,STARLINK-3057,PAYLOAD,2021-11-29 14:00:01,15.69764698,0.0003628999999999,69.9974,271.9615,278.5321,22.6214,-0.00054127,-0.00064379,0.0,0 STARLINK-3057,1 49139U 21082K   21333.58334491 -.00064379  00000-0 -54127-3 0  9991,2 49139  69.9974 271.9615 0003629 278.5321  22.6214 15.69764698 12103,6737.706999999999,91.733,362.017,357.12699999999984,0.0
49139.0,STARLINK-3057,PAYLOAD,2021-11-29 22:00:00,15.69748481,0.000359,69.9978,271.0245,276.8613,107.401,-5.7338e-05,-7.051e-05,0.0,0 STARLINK-3057,1 49139U 21082K   21333.91667824 -.00007051  00000-0 -57338-4 0  9999,2 49139  69.9978 271.0245 0003590 276.8613 107.4010 15.69748481  3703,6737.754,91.734,362.037,357.2,0.0
49139.0,STARLINK-3057,PAYLOAD,2021-11-30 06:00:00,15.69734162,0.00036,69.9977,270.0873,282.2509,185.1324,0.00030429,0.00036249,0.0,0 STARLINK-3057,1 49139U 21082K   21334.25001157  .00036249  00000-0  30429-3 0  9998,2 49139  69.9977 270.0873 0003600 282.2509 185.1324 15.69734162 12202,6737.795,91.735,362.085,357.2340000000001,0.0
49139.0,STARLINK-3057,PAYLOAD,2021-11-30 10:00:00,15.69799419,0.0003559,69.9973,269.6188,280.9509,47.973,-0.0012151,-0.00143126,0.0,0 STARLINK-3057,1 49139U 21082K   21334.41667824 -.00143126  00000-0 -12151-2 0  9991,2 49139  69.9973 269.6188 0003559 280.9509  47.9730 15.69799419  3672,6737.608,91.731,361.871,357.075,0.0
49139.0,STARLINK-3057,PAYLOAD,2021-11-30 16:00:00,15.69657747,0.0003346,69.9975,268.9159,275.8095,25.4833,0.00060812,0.00072739,0.0,0 STARLINK-3057,1 49139U 21082K   21334.66667824  .00072739  00000-0  60812-3 0  9995,2 49139  69.9975 268.9159 0003346 275.8095  25.4833 15.69657747 12279,6738.013000000001,91.74,362.133,357.624,0.0
49139.0,STARLINK-3057,PAYLOAD,2021-11-30 22:00:00,15.69723681,0.000336,69.9978,268.2131,275.7942,357.772,-0.00016327,-0.00019637,0.0,0 STARLINK-3057,1 49139U 21082K   21334.91667824 -.00019637  00000-0 -16327-3 0  9995,2 49139  69.9978 268.2131 0003360 275.7942 357.7720 15.69723681  3683,6737.825,91.736,361.954,357.426,0.0
49139.0,STARLINK-3057,PAYLOAD,2021-12-01 06:00:00,15.69693475,0.0003326,69.9977,267.276,282.7815,73.8748,0.00057106,0.00068358,0.0,0 STARLINK-3057,1 49139U 21082K   21335.25001157  .00068358  00000-0  57106-3 0  9996,2 49139  69.9977 267.2760 0003326 282.7815  73.8748 15.69693475 12366,6737.911,91.738,362.017,357.535,0.0
49139.0,STARLINK-3057,PAYLOAD,2021-12-01 14:00:01,15.69716454,0.0003268,69.998,266.3389,276.5672,163.1939,0.00051685,0.00061859,0.0,0 STARLINK-3057,1 49139U 21082K   21335.58334491  .00061859  00000-0  51685-3 0  9997,2 49139  69.9980 266.3389 0003268 276.5672 163.1939 15.69716454  3698,6737.845,91.736,361.912,357.5080000000001,0.0
49139.0,STARLINK-3057,PAYLOAD,2021-12-01 22:00:00,15.69789862,0.000329,69.9986,265.402,275.3401,247.5311,-9.6158e-06,-1.362e-05,0.0,0 STARLINK-3057,1 49139U 21082K   21335.91667824 -.00001362  00000-0 -96158-5 0  9994,2 49139  69.9986 265.4020 0003290 275.3401 247.5311 15.69789862  3681,6737.635,91.732,361.717,357.284,0.0
49139.0,STARLINK-3057,PAYLOAD,2021-12-02 06:00:00,15.69777288,0.0003449,69.9985,264.4648,280.7855,325.2556,0.00043754,0.00052408,0.0,0 STARLINK-3057,1 49139U 21082K   21336.25001157  .00052408  00000-0  43754-3 0  9990,2 49139  69.9985 264.4648 0003449 280.7855 325.2556 15.69777288 12521,6737.670999999999,91.733,361.86,357.212,0.0
49139.0,STARLINK-3057,PAYLOAD,2021-12-02 14:00:01,15.69789582,0.0003491,69.9983,263.5276,274.208,55.0189,-0.00044276,-0.00052825,0.0,0 STARLINK-3057,1 49139U 21082K   21336.58334491 -.00052825  00000-0 -44276-3 0  9991,2 49139  69.9983 263.5276 0003491 274.2080  55.0189 15.69789582 12576,6737.636,91.732,361.853,357.149,0.0
49139.0,STARLINK-3057,PAYLOAD,2021-12-02 22:00:00,15.69797994,0.0003609,69.9985,262.5906,274.6053,137.7545,-0.00094801,-0.00112117,0.0,0 STARLINK-3057,1 49139U 21082K   21336.91667824 -.00112117  00000-0 -94801-3 0  9997,2 49139  69.9985 262.5906 0003609 274.6053 137.7545 15.69797994  3662,6737.611999999999,91.732,361.909,357.045,0.0
49139.0,STARLINK-3057,PAYLOAD,2021-12-03 14:00:01,15.69691097,0.0003382,69.9986,260.7164,274.8947,303.6907,0.00053271,0.00063712,0.0,0 STARLINK-3057,1 49139U 21082K   21337.58334491  .00063712  00000-0  53271-3 0  9992,2 49139  69.9986 260.7164 0003382 274.8947 303.6907 15.69691097 12732,6737.918000000002,91.738,362.062,357.504,0.0
49139.0,STARLINK-3057,PAYLOAD,2021-12-03 22:00:00,15.69759725,0.0003423,69.9991,259.7796,273.9247,27.7323,-0.00017968,-0.00021616,0.0,0 STARLINK-3057,1 49139U 21082K   21337.91667824 -.00021616  00000-0 -17968-3 0  9990,2 49139  69.9991 259.7796 0003423 273.9247  27.7323 15.69759725  3667,6737.721,91.734,361.893,357.28,0.0
49139.0,STARLINK-3057,PAYLOAD,2021-12-04 06:00:00,15.69740747,0.0003454,69.9988,258.8425,279.3366,105.4542,0.00046378,0.0005549999999999,0.0,0 STARLINK-3057,1 49139U 21082K   21338.25001157  .00055500  00000-0  46378-3 0  9993,2 49139  69.9988 258.8425 0003454 279.3366 105.4542 15.69740747 12838,6737.776,91.735,361.968,357.314,0.0
49139.0,STARLINK-3057,PAYLOAD,2021-12-04 22:00:00,15.69748842,0.0003506,70.0003,256.9749,278.771,272.1312,-2.5581e-05,-3.265e-05,0.0,0 STARLINK-3057,1 49139U 21082K   21338.91667824 -.00003265  00000-0 -25581-4 0  9992,2 49139  70.0003 256.9749 0003506 278.7710 272.1312 15.69748842 12933,6737.753000000002,91.734,361.98,357.255,0.0
49139.0,STARLINK-3057,PAYLOAD,2021-12-05 06:00:02,15.69733338,0.0003184,69.9982,256.0316,279.106,355.1879,0.00042396,0.0005067,0.0,0 STARLINK-3057,1 49139U 21082K   21339.25002315  .00050670  00000-0  42396-3 0  9990,2 49139  69.9982 256.0316 0003184 279.1060 355.1879 15.69733338 12992,6737.797,91.735,361.807,357.517,0.0
